[{"OBJECT_NAME":"INTELSAT 33E DEB","OBJECT_ID":"2016-053T","EPOCH":"2026-03-04T13:01:37.155360","MEAN_MOTION":1.0018541,"ECCENTRICITY":0.0063018,"INCLINATION":1.1765,"RA_OF_ASC_NODE":63.9628,"ARG_OF_PERICENTER":335.0666,"MEAN_ANOMALY":25.8608,"EPHEMERIS_TYPE":0,"CLASSIFICATION_TYPE":"U","NORAD_CAT_ID":62001,"ELEMENT_SET_NO":999,"REV_AT_EPOCH":503,"BSTAR":0,"MEAN_MOTION_DOT":-6.0e-8,"MEAN_MOTION_DDOT":0},{"OBJECT_NAME":"INTELSAT 33E DEB","OBJECT_ID":"2016-053V","EPOCH":"2026-03-03T20:14:58.577856","MEAN_MOTION":1.0040908,"ECCENTRICITY":0.00253625,"INCLINATION":1.3542,"RA_OF_ASC_NODE":90.1162,"ARG_OF_PERICENTER":246.6849,"MEAN_ANOMALY":114.0003,"EPHEMERIS_TYPE":0,"CLASSIFICATION_TYPE":"U","NORAD_CAT_ID":62003,"ELEMENT_SET_NO":999,"REV_AT_EPOCH":502,"BSTAR":0,"MEAN_MOTION_DOT":-1.04e-6,"MEAN_MOTION_DDOT":0},{"OBJECT_NAME":"INTELSAT 33E DEB","OBJECT_ID":"2016-053W","EPOCH":"2026-03-04T20:55:19.072992","MEAN_MOTION":1.02630958,"ECCENTRICITY":0.02089347,"INCLINATION":2.2969,"RA_OF_ASC_NODE":119.7819,"ARG_OF_PERICENTER":265.9124,"MEAN_ANOMALY":92.0787,"EPHEMERIS_TYPE":0,"CLASSIFICATION_TYPE":"U","NORAD_CAT_ID":62004,"ELEMENT_SET_NO":999,"REV_AT_EPOCH":514,"BSTAR":0,"MEAN_MOTION_DOT":5.0e-8,"MEAN_MOTION_DDOT":0},{"OBJECT_NAME":"INTELSAT 33E DEB","OBJECT_ID":"2016-053X","EPOCH":"2026-03-03T03:42:36.334944","MEAN_MOTION":1.04573342,"ECCENTRICITY":0.0297042,"INCLINATION":1.4774,"RA_OF_ASC_NODE":100.2504,"ARG_OF_PERICENTER":239.1969,"MEAN_ANOMALY":118.5568,"EPHEMERIS_TYPE":0,"CLASSIFICATION_TYPE":"U","NORAD_CAT_ID":62005,"ELEMENT_SET_NO":999,"REV_AT_EPOCH":520,"BSTAR":0,"MEAN_MOTION_DOT":-2.1e-6,"MEAN_MOTION_DDOT":0},{"OBJECT_NAME":"OPTUS-X (ADS-01)","OBJECT_ID":"2024-212A","EPOCH":"2026-03-05T06:11:02.738976","MEAN_MOTION":1.00272649,"ECCENTRICITY":9.982e-5,"INCLINATION":0.0574,"RA_OF_ASC_NODE":275.0133,"ARG_OF_PERICENTER":76.1014,"MEAN_ANOMALY":61.0519,"EPHEMERIS_TYPE":0,"CLASSIFICATION_TYPE":"U","NORAD_CAT_ID":62006,"ELEMENT_SET_NO":999,"REV_AT_EPOCH":471,"BSTAR":0,"MEAN_MOTION_DOT":-1.52e-6,"MEAN_MOTION_DDOT":0},{"OBJECT_NAME":"FALCON 9 R/B","OBJECT_ID":"2024-212B","EPOCH":"2026-03-03T18:10:09.403392","MEAN_MOTION":1.58893551,"ECCENTRICITY":0.7801807,"INCLINATION":18.3244,"RA_OF_ASC_NODE":95.4834,"ARG_OF_PERICENTER":46.1259,"MEAN_ANOMALY":356.3307,"EPHEMERIS_TYPE":0,"CLASSIFICATION_TYPE":"U","NORAD_CAT_ID":62007,"ELEMENT_SET_NO":999,"REV_AT_EPOCH":744,"BSTAR":0.00092131,"MEAN_MOTION_DOT":-1.06e-6,"MEAN_MOTION_DDOT":0},{"OBJECT_NAME":"GSAT-N2 (GSAT-20)","OBJECT_ID":"2024-214A","EPOCH":"2026-03-05T05:47:38.745024","MEAN_MOTION":1.00273349,"ECCENTRICITY":0.0001099,"INCLINATION":0.083,"RA_OF_ASC_NODE":264.9971,"ARG_OF_PERICENTER":310.3866,"MEAN_ANOMALY":102.5071,"EPHEMERIS_TYPE":0,"CLASSIFICATION_TYPE":"U","NORAD_CAT_ID":62028,"ELEMENT_SET_NO":999,"REV_AT_EPOCH":485,"BSTAR":0,"MEAN_MOTION_DOT":-2.9e-7,"MEAN_MOTION_DDOT":0},{"OBJECT_NAME":"TJS-13","OBJECT_ID":"2024-227A","EPOCH":"2026-03-05T05:16:58.102752","MEAN_MOTION":2.00612603,"ECCENTRICITY":0.70041498,"INCLINATION":63.706,"RA_OF_ASC_NODE":51.3306,"ARG_OF_PERICENTER":269.4853,"MEAN_ANOMALY":17.1666,"EPHEMERIS_TYPE":0,"CLASSIFICATION_TYPE":"U","NORAD_CAT_ID":62188,"ELEMENT_SET_NO":999,"REV_AT_EPOCH":916,"BSTAR":0,"MEAN_MOTION_DOT":4.56e-6,"MEAN_MOTION_DDOT":0},{"OBJECT_NAME":"PROBA-3 CSC","OBJECT_ID":"2024-233A","EPOCH":"2026-03-03T15:38:08.363616","MEAN_MOTION":1.22074677,"ECCENTRICITY":0.80159011,"INCLINATION":59.612,"RA_OF_ASC_NODE":106.3485,"ARG_OF_PERICENTER":202.4542,"MEAN_ANOMALY":77.9838,"EPHEMERIS_TYPE":0,"CLASSIFICATION_TYPE":"U","NORAD_CAT_ID":62256,"ELEMENT_SET_NO":999,"REV_AT_EPOCH":553,"BSTAR":0.0097810345,"MEAN_MOTION_DOT":-1.15e-6,"MEAN_MOTION_DDOT":0},{"OBJECT_NAME":"PSLV R/B","OBJECT_ID":"2024-233B","EPOCH":"2026-03-03T22:47:42.312192","MEAN_MOTION":1.20450018,"ECCENTRICITY":0.80330191,"INCLINATION":59.7048,"RA_OF_ASC_NODE":107.1286,"ARG_OF_PERICENTER":202.0769,"MEAN_ANOMALY":78.772,"EPHEMERIS_TYPE":0,"CLASSIFICATION_TYPE":"U","NORAD_CAT_ID":62257,"ELEMENT_SET_NO":999,"REV_AT_EPOCH":546,"BSTAR":-0.01944505,"MEAN_MOTION_DOT":-2.42e-6,"MEAN_MOTION_DDOT":0},{"OBJECT_NAME":"PROBA-3 OSC","OBJECT_ID":"2024-233C","EPOCH":"2026-03-01T04:40:06.500352","MEAN_MOTION":1.22073345,"ECCENTRICITY":0.8016031,"INCLINATION":59.602,"RA_OF_ASC_NODE":106.5529,"ARG_OF_PERICENTER":202.3855,"MEAN_ANOMALY":78.1997,"EPHEMERIS_TYPE":0,"CLASSIFICATION_TYPE":"U","NORAD_CAT_ID":62258,"ELEMENT_SET_NO":999,"REV_AT_EPOCH":549,"BSTAR":0.0083784442,"MEAN_MOTION_DOT":-1.42e-6,"MEAN_MOTION_DDOT":0},{"OBJECT_NAME":"SXM-9","OBJECT_ID":"2024-234A","EPOCH":"2026-03-04T08:17:38.511168","MEAN_MOTION":1.00268409,"ECCENTRICITY":0.00039758,"INCLINATION":0.0135,"RA_OF_ASC_NODE":141.461,"ARG_OF_PERICENTER":168.2456,"MEAN_ANOMALY":251.6528,"EPHEMERIS_TYPE":0,"CLASSIFICATION_TYPE":"U","NORAD_CAT_ID":62259,"ELEMENT_SET_NO":999,"REV_AT_EPOCH":452,"BSTAR":0,"MEAN_MOTION_DOT":0,"MEAN_MOTION_DDOT":0},{"OBJECT_NAME":"TJS-12","OBJECT_ID":"2024-246A","EPOCH":"2026-03-05T06:08:10.514400","MEAN_MOTION":1.0027507,"ECCENTRICITY":0.00023234,"INCLINATION":0.9083,"RA_OF_ASC_NODE":291.7115,"ARG_OF_PERICENTER":26.882,"MEAN_ANOMALY":82.9107,"EPHEMERIS_TYPE":0,"CLASSIFICATION_TYPE":"U","NORAD_CAT_ID":62374,"ELEMENT_SET_NO":999,"REV_AT_EPOCH":452,"BSTAR":0,"MEAN_MOTION_DOT":-2.4e-6,"MEAN_MOTION_DDOT":0},{"OBJECT_NAME":"ASTRANIS UTILITYSAT","OBJECT_ID":"2024-252A","EPOCH":"2026-02-05T08:47:56.130432","MEAN_MOTION":1.00326217,"ECCENTRICITY":0.7515191,"INCLINATION":9.0086,"RA_OF_ASC_NODE":332.5475,"ARG_OF_PERICENTER":238.8028,"MEAN_ANOMALY":28.0513,"EPHEMERIS_TYPE":0,"CLASSIFICATION_TYPE":"U","NORAD_CAT_ID":62454,"ELEMENT_SET_NO":999,"REV_AT_EPOCH":410,"BSTAR":0,"MEAN_MOTION_DOT":-1.41e-6,"MEAN_MOTION_DDOT":0},{"OBJECT_NAME":"NUVIEW ALPHA","OBJECT_ID":"2024-252B","EPOCH":"2026-03-05T05:02:39.296256","MEAN_MOTION":1.00273038,"ECCENTRICITY":0.00026733,"INCLINATION":0.0565,"RA_OF_ASC_NODE":26.053,"ARG_OF_PERICENTER":333.502,"MEAN_ANOMALY":155.9394,"EPHEMERIS_TYPE":0,"CLASSIFICATION_TYPE":"U","NORAD_CAT_ID":62455,"ELEMENT_SET_NO":999,"REV_AT_EPOCH":278,"BSTAR":0,"MEAN_MOTION_DOT":-2.24e-6,"MEAN_MOTION_DDOT":0},{"OBJECT_NAME":"AGILA","OBJECT_ID":"2024-252C","EPOCH":"2026-03-04T21:35:38.634144","MEAN_MOTION":1.00273825,"ECCENTRICITY":0.00014462,"INCLINATION":0.0264,"RA_OF_ASC_NODE":149.0224,"ARG_OF_PERICENTER":201.1375,"MEAN_ANOMALY":288.5242,"EPHEMERIS_TYPE":0,"CLASSIFICATION_TYPE":"U","NORAD_CAT_ID":62456,"ELEMENT_SET_NO":999,"REV_AT_EPOCH":411,"BSTAR":0,"MEAN_MOTION_DOT":-1.91e-6,"MEAN_MOTION_DDOT":0},{"OBJECT_NAME":"NUVIEW BRAVO","OBJECT_ID":"2024-252D","EPOCH":"2026-03-05T05:02:39.296256","MEAN_MOTION":1.002732,"ECCENTRICITY":4.918e-5,"INCLINATION":0.0654,"RA_OF_ASC_NODE":167.2128,"ARG_OF_PERICENTER":198.3557,"MEAN_ANOMALY":149.8994,"EPHEMERIS_TYPE":0,"CLASSIFICATION_TYPE":"U","NORAD_CAT_ID":62457,"ELEMENT_SET_NO":999,"REV_AT_EPOCH":275,"BSTAR":0,"MEAN_MOTION_DOT":-2.24e-6,"MEAN_MOTION_DDOT":0}]
