INTELSAT 33E DEB        
1 62001U 16053T   26063.54279115 -.00000006  00000+0  00000+0 0  9990
2 62001   1.1765  63.9628 0063018 335.0666  25.8608  1.00185410  5039
INTELSAT 33E DEB        
1 62003U 16053V   26062.84373354 -.00000104  00000+0  00000+0 0  9993
2 62003   1.3542  90.1162 0025362 246.6849 114.0003  1.00409080  5022
INTELSAT 33E DEB        
1 62004U 16053W   26063.87174853  .00000005  00000+0  00000+0 0  9990
2 62004   2.2969 119.7819 0208934 265.9124  92.0787  1.02630958  5140
INTELSAT 33E DEB        
1 62005U 16053X   26062.15458721 -.00000210  00000+0  00000+0 0  9999
2 62005   1.4774 100.2504 0297042 239.1969 118.5568  1.04573342  5203
OPTUS-X (ADS-01)        
1 62006U 24212A   26064.25767059 -.00000152  00000+0  00000+0 0  9991
2 62006   0.0574 275.0133 0000998  76.1014  61.0519  1.00272649  4713
FALCON 9 R/B            
1 62007U 24212B   26062.75705328 -.00000106  00000+0  92131-3 0  9995
2 62007  18.3244  95.4834 7801807  46.1259 356.3307  1.58893551  7447
GSAT-N2 (GSAT-20)       
1 62028U 24214A   26064.24142066 -.00000029  00000+0  00000+0 0  9994
2 62028   0.0830 264.9971 0001099 310.3866 102.5071  1.00273349  4857
TJS-13                  
1 62188U 24227A   26064.22011693  .00000456  00000+0  00000+0 0  9997
2 62188  63.7060  51.3306 7004149 269.4853  17.1666  2.00612603  9162
PROBA-3 CSC             
1 62256U 24233A   26062.65148569 -.00000115  00000+0  97810-2 0  9999
2 62256  59.6120 106.3485 8015901 202.4542  77.9838  1.22074677  5537
PSLV R/B                
1 62257U 24233B   26062.94979528 -.00000242  00000+0 -19445-1 0  9998
2 62257  59.7048 107.1286 8033019 202.0769  78.7720  1.20450018  5469
PROBA-3 OSC             
1 62258U 24233C   26060.19451968 -.00000142  00000+0  83784-2 0  9993
2 62258  59.6020 106.5529 8016031 202.3855  78.1997  1.22073345  5495
SXM-9                   
1 62259U 24234A   26063.34558462  .00000000  00000+0  00000+0 0  9991
2 62259   0.0135 141.4610 0003975 168.2456 251.6528  1.00268409  4528
TJS-12                  
1 62374U 24246A   26064.25567725 -.00000240  00000+0  00000+0 0  9992
2 62374   0.9083 291.7115 0002323  26.8820  82.9107  1.00275070  4526
ASTRANIS UTILITYSAT     
1 62454U 24252A   26036.36662188 -.00000141  00000+0  00000+0 0  9998
2 62454   9.0086 332.5475 7515191 238.8028  28.0513  1.00326217  4101
NUVIEW ALPHA            
1 62455U 24252B   26064.21017704 -.00000224  00000+0  00000+0 0  9994
2 62455   0.0565  26.0530 0002673 333.5020 155.9394  1.00273038  2787
AGILA                   
1 62456U 24252C   26063.89975271 -.00000191  00000+0  00000+0 0  9993
2 62456   0.0264 149.0224 0001446 201.1375 288.5242  1.00273825  4118
NUVIEW BRAVO            
1 62457U 24252D   26064.21017704 -.00000224  00000+0  00000+0 0  9996
2 62457   0.0654 167.2128 0000491 198.3557 149.8994  1.00273200  2753
